[{"OBJECT_NAME":"OBJECT C","OBJECT_ID":"2023-104C","EPOCH":"2026-03-09T22:39:44.230752","MEAN_MOTION":15.26846312,"ECCENTRICITY":0.00113074,"INCLINATION":97.273,"RA_OF_ASC_NODE":135.3333,"ARG_OF_PERICENTER":3.876,"MEAN_ANOMALY":356.2565,"EPHEMERIS_TYPE":0,"CLASSIFICATION_TYPE":"U","NORAD_CAT_ID":57426,"ELEMENT_SET_NO":999,"REV_AT_EPOCH":14663,"BSTAR":0.00062618506,"MEAN_MOTION_DOT":0.00016495,"MEAN_MOTION_DDOT":0},{"OBJECT_NAME":"STARLINK-30932","OBJECT_ID":"2023-191R","EPOCH":"2026-03-09T10:09:55.485504","MEAN_MOTION":15.27240316,"ECCENTRICITY":9.319e-5,"INCLINATION":42.9994,"RA_OF_ASC_NODE":104.6731,"ARG_OF_PERICENTER":208.9228,"MEAN_ANOMALY":151.1572,"EPHEMERIS_TYPE":0,"CLASSIFICATION_TYPE":"U","NORAD_CAT_ID":58523,"ELEMENT_SET_NO":999,"REV_AT_EPOCH":12538,"BSTAR":0.0042662008,"MEAN_MOTION_DOT":0.00117798,"MEAN_MOTION_DDOT":0}]
